*******************************************************************************
Ephemeris / WWW_USER Mon Mar 24 08:54:20 2025 Pasadena, USA      / Horizons    
*******************************************************************************
Target body name: (2018 PC20)                     {source: JPL#4}
Center body name: Earth (399)                     {source: DE441}
Center-site name: Mauna Kea
*******************************************************************************
Start time      : A.D. 2018-Nov-08 03:54:00.0000 UT      
Stop  time      : A.D. 2018-Nov-08 16:17:00.0000 UT      
Step-size       : 1 minutes
*******************************************************************************
Target pole/equ : undefined
Target radii    : undefined                                                    
Center geodetic : 204.5278, 19.8260847, 4.21024   {E-lon(deg),Lat(deg),Alt(km)}
Center cylindric: 204.5278, 6006.35451, 2151.0229 {E-lon(deg),Dxy(km),Dz(km)}
Center pole/equ : ITRF93                          {East-longitude positive}
Center radii    : 6378.137, 6378.137, 6356.752 km {Equator_a, b, pole_c}       
Target primary  : Sun
Vis. interferer : MOON (R_eq= 1737.400) km        {source: DE441}
Rel. light bend : Sun                             {source: DE441}
Rel. lght bnd GM: 1.3271E+11 km^3/s^2                                          
Small-body perts: Yes                             {source: SB441-N16}
Atmos refraction: NO (AIRLESS)
RA format       : HMS
Time format     : CAL 
Calendar mode   : Mixed Julian/Gregorian
RTS-only print  : NO       
EOP file        : eop.250321.p250617                                           
EOP coverage    : DATA-BASED 1962-JAN-20 TO 2025-MAR-21. PREDICTS-> 2025-JUN-16
Units conversion: 1 au= 149597870.700 km, c= 299792.458 km/s, 1 day= 86400.0 s 
Table cut-offs 1: Elevation (-90.0deg=NO ),Airmass (>38.000=NO), Daylight (YES)
Table cut-offs 2: Solar elongation (  0.0,180.0=NO ),Local Hour Angle( 0.0=NO )
Table cut-offs 3: RA/DEC angular rate (     0.0=NO )                           
*******************************************************************************
Initial IAU76/J2000 heliocentric ecliptic osculating elements (au, days, deg.):
  EPOCH=  2458343.5 ! 2018-Aug-13.00 (TDB)         Residual RMS= .24519        
   EC= .404352607301711    QR= 1.018354806317198   TP= 2458318.6524357731      
   OM= 139.299704166656    W=  153.5303944744985   IN= 8.986086735514593       
  Equivalent ICRF heliocentric cartesian coordinates (au, au/d):
   X= 8.116079301925467E-01  Y=-6.140581064636024E-01  Z=-2.698058679324596E-01
  VX= 1.436448164656351E-02 VY= 1.329561442287599E-02 VZ= 2.429594529488231E-03
Asteroid physical parameters (km, seconds, rotational period in hours):        
   GM= n.a.                RAD= n.a.               ROTPER= n.a.                
   H= 25.2                 G= .150                 B-V= n.a.                   
                           ALBEDO= n.a.            STYP= n.a.                  
*******************************************************************************
 Date__(UT)__HR:MN     R.A._________(ICRF)_________DEC
******************************************************
$$SOE
 2018-Nov-08 05:57     00 28 51.090447 -18 30 22.19952
 2018-Nov-08 05:58     00 28 51.115437 -18 30 21.48243
 2018-Nov-08 05:59     00 28 51.140420 -18 30 20.76527
 2018-Nov-08 06:00     00 28 51.165396 -18 30 20.04804
 2018-Nov-08 06:01     00 28 51.190366 -18 30 19.33073
 2018-Nov-08 06:02     00 28 51.215328 -18 30 18.61336
 2018-Nov-08 06:03     00 28 51.240284 -18 30 17.89592
 2018-Nov-08 06:04     00 28 51.265234 -18 30 17.17840
 2018-Nov-08 06:05     00 28 51.290177 -18 30 16.46081
 2018-Nov-08 06:06     00 28 51.315113 -18 30 15.74316
 2018-Nov-08 06:07     00 28 51.340043 -18 30 15.02542
 2018-Nov-08 06:08     00 28 51.364967 -18 30 14.30762
 2018-Nov-08 06:09     00 28 51.389884 -18 30 13.58975
 2018-Nov-08 06:10     00 28 51.414795 -18 30 12.87180
 2018-Nov-08 06:11     00 28 51.439700 -18 30 12.15378
 2018-Nov-08 06:12     00 28 51.464599 -18 30 11.43569
 2018-Nov-08 06:13     00 28 51.489492 -18 30 10.71752
 2018-Nov-08 06:14     00 28 51.514379 -18 30 09.99929
 2018-Nov-08 06:15     00 28 51.539261 -18 30 09.28097
 2018-Nov-08 06:16     00 28 51.564136 -18 30 08.56259
 2018-Nov-08 06:17     00 28 51.589006 -18 30 07.84413
 2018-Nov-08 06:18     00 28 51.613870 -18 30 07.12560
 2018-Nov-08 06:19     00 28 51.638729 -18 30 06.40700
 2018-Nov-08 06:20     00 28 51.663582 -18 30 05.68833
 2018-Nov-08 06:21     00 28 51.688429 -18 30 04.96957
 2018-Nov-08 06:22     00 28 51.713272 -18 30 04.25075
 2018-Nov-08 06:23     00 28 51.738109 -18 30 03.53185
 2018-Nov-08 06:24     00 28 51.762941 -18 30 02.81288
 2018-Nov-08 06:25     00 28 51.787768 -18 30 02.09384
 2018-Nov-08 06:26     00 28 51.812589 -18 30 01.37472
 2018-Nov-08 06:27     00 28 51.837406 -18 30 00.65552
 2018-Nov-08 06:28     00 28 51.862218 -18 29 59.93625
 2018-Nov-08 06:29     00 28 51.887025 -18 29 59.21691
 2018-Nov-08 06:30     00 28 51.911827 -18 29 58.49749
 2018-Nov-08 06:31     00 28 51.936624 -18 29 57.77800
 2018-Nov-08 06:32     00 28 51.961417 -18 29 57.05843
 2018-Nov-08 06:33     00 28 51.986205 -18 29 56.33879
 2018-Nov-08 06:34     00 28 52.010989 -18 29 55.61907
 2018-Nov-08 06:35     00 28 52.035769 -18 29 54.89928
 2018-Nov-08 06:36     00 28 52.060544 -18 29 54.17941
 2018-Nov-08 06:37     00 28 52.085314 -18 29 53.45947
 2018-Nov-08 06:38     00 28 52.110081 -18 29 52.73945
 2018-Nov-08 06:39     00 28 52.134844 -18 29 52.01936
 2018-Nov-08 06:40     00 28 52.159602 -18 29 51.29919
 2018-Nov-08 06:41     00 28 52.184357 -18 29 50.57895
 2018-Nov-08 06:42     00 28 52.209107 -18 29 49.85863
 2018-Nov-08 06:43     00 28 52.233854 -18 29 49.13823
 2018-Nov-08 06:44     00 28 52.258597 -18 29 48.41776
 2018-Nov-08 06:45     00 28 52.283336 -18 29 47.69721
 2018-Nov-08 06:46     00 28 52.308072 -18 29 46.97659
 2018-Nov-08 06:47     00 28 52.332804 -18 29 46.25589
 2018-Nov-08 06:48     00 28 52.357533 -18 29 45.53511
 2018-Nov-08 06:49     00 28 52.382258 -18 29 44.81426
 2018-Nov-08 06:50     00 28 52.406980 -18 29 44.09333
 2018-Nov-08 06:51     00 28 52.431699 -18 29 43.37233
 2018-Nov-08 06:52     00 28 52.456415 -18 29 42.65124
 2018-Nov-08 06:53     00 28 52.481127 -18 29 41.93009
 2018-Nov-08 06:54     00 28 52.505837 -18 29 41.20885
 2018-Nov-08 06:55     00 28 52.530544 -18 29 40.48754
 2018-Nov-08 06:56     00 28 52.555247 -18 29 39.76615
 2018-Nov-08 06:57     00 28 52.579948 -18 29 39.04469
 2018-Nov-08 06:58     00 28 52.604647 -18 29 38.32315
 2018-Nov-08 06:59     00 28 52.629342 -18 29 37.60153
 2018-Nov-08 07:00     00 28 52.654035 -18 29 36.87983
 2018-Nov-08 07:01     00 28 52.678726 -18 29 36.15806
 2018-Nov-08 07:02     00 28 52.703414 -18 29 35.43621
 2018-Nov-08 07:03     00 28 52.728100 -18 29 34.71428
 2018-Nov-08 07:04     00 28 52.752784 -18 29 33.99228
 2018-Nov-08 07:05     00 28 52.777465 -18 29 33.27020
 2018-Nov-08 07:06     00 28 52.802144 -18 29 32.54804
 2018-Nov-08 07:07     00 28 52.826821 -18 29 31.82580
 2018-Nov-08 07:08     00 28 52.851497 -18 29 31.10349
 2018-Nov-08 07:09     00 28 52.876170 -18 29 30.38110
 2018-Nov-08 07:10     00 28 52.900842 -18 29 29.65863
 2018-Nov-08 07:11     00 28 52.925511 -18 29 28.93608
 2018-Nov-08 07:12     00 28 52.950180 -18 29 28.21346
 2018-Nov-08 07:13     00 28 52.974846 -18 29 27.49076
 2018-Nov-08 07:14     00 28 52.999511 -18 29 26.76798
 2018-Nov-08 07:15     00 28 53.024175 -18 29 26.04512
 2018-Nov-08 07:16     00 28 53.048837 -18 29 25.32219
 2018-Nov-08 07:17     00 28 53.073498 -18 29 24.59917
 2018-Nov-08 07:18     00 28 53.098158 -18 29 23.87608
 2018-Nov-08 07:19     00 28 53.122816 -18 29 23.15292
 2018-Nov-08 07:20     00 28 53.147474 -18 29 22.42967
 2018-Nov-08 07:21     00 28 53.172131 -18 29 21.70635
 2018-Nov-08 07:22     00 28 53.196786 -18 29 20.98295
 2018-Nov-08 07:23     00 28 53.221441 -18 29 20.25947
 2018-Nov-08 07:24     00 28 53.246095 -18 29 19.53591
 2018-Nov-08 07:25     00 28 53.270748 -18 29 18.81227
 2018-Nov-08 07:26     00 28 53.295401 -18 29 18.08856
 2018-Nov-08 07:27     00 28 53.320053 -18 29 17.36477
 2018-Nov-08 07:28     00 28 53.344705 -18 29 16.64090
 2018-Nov-08 07:29     00 28 53.369357 -18 29 15.91695
 2018-Nov-08 07:30     00 28 53.394008 -18 29 15.19292
 2018-Nov-08 07:31     00 28 53.418659 -18 29 14.46882
 2018-Nov-08 07:32     00 28 53.443309 -18 29 13.74464
 2018-Nov-08 07:33     00 28 53.467960 -18 29 13.02038
 2018-Nov-08 07:34     00 28 53.492611 -18 29 12.29604
 2018-Nov-08 07:35     00 28 53.517261 -18 29 11.57162
 2018-Nov-08 07:36     00 28 53.541912 -18 29 10.84713
 2018-Nov-08 07:37     00 28 53.566563 -18 29 10.12256
 2018-Nov-08 07:38     00 28 53.591215 -18 29 09.39791
 2018-Nov-08 07:39     00 28 53.615866 -18 29 08.67318
 2018-Nov-08 07:40     00 28 53.640519 -18 29 07.94837
 2018-Nov-08 07:41     00 28 53.665171 -18 29 07.22348
 2018-Nov-08 07:42  t  00 28 53.689825 -18 29 06.49852
 2018-Nov-08 07:43  e  00 28 53.714479 -18 29 05.77348
 2018-Nov-08 07:44     00 28 53.739134 -18 29 05.04836
 2018-Nov-08 07:45     00 28 53.763789 -18 29 04.32316
 2018-Nov-08 07:46     00 28 53.788446 -18 29 03.59789
 2018-Nov-08 07:47     00 28 53.813103 -18 29 02.87253
 2018-Nov-08 07:48     00 28 53.837762 -18 29 02.14710
 2018-Nov-08 07:49     00 28 53.862422 -18 29 01.42159
 2018-Nov-08 07:50     00 28 53.887082 -18 29 00.69600
 2018-Nov-08 07:51     00 28 53.911745 -18 28 59.97033
 2018-Nov-08 07:52     00 28 53.936408 -18 28 59.24459
 2018-Nov-08 07:53     00 28 53.961073 -18 28 58.51877
 2018-Nov-08 07:54     00 28 53.985740 -18 28 57.79287
 2018-Nov-08 07:55     00 28 54.010408 -18 28 57.06689
 2018-Nov-08 07:56     00 28 54.035078 -18 28 56.34083
 2018-Nov-08 07:57     00 28 54.059749 -18 28 55.61470
 2018-Nov-08 07:58     00 28 54.084423 -18 28 54.88849
 2018-Nov-08 07:59     00 28 54.109098 -18 28 54.16220
